#aV2006  3 25  0  0   .00000000      96 DD+AD WGS84 FIT  NGA
## 1367 518400.00000000   900.00000000 53819  .0000000000000
+   29     1  2  3  4  5  6  7  8  9 10 11 13 14 15 16 17 18
+         19 20 21 22 23 24 25 26 27 28 29 30  0  0  0  0  0
+          0  0  0  0  0  0  0  0  0  0  0  0  0  0  0  0  0
+          0  0  0  0  0  0  0  0  0  0  0  0  0  0  0  0  0
+          0  0  0  0  0  0  0  0  0  0  0  0  0  0  0  0  0
++         0  0  0  0  0  0  0  0  0  0  0  0  0  0  0  0  0
++         0  0  0  0  0  0  0  0  0  0  0  0  0  0  0  0  0
++         0  0  0  0  0  0  0  0  0  0  0  0  0  0  0  0  0
++         0  0  0  0  0  0  0  0  0  0  0  0  0  0  0  0  0
++         0  0  0  0  0  0  0  0  0  0  0  0  0  0  0  0  0
%c cc cc ccc ccc cccc cccc cccc cccc ccccc ccccc ccccc ccccc
%c cc cc ccc ccc cccc cccc cccc cccc ccccc ccccc ccccc ccccc
%f  0.0000000  0.000000000  0.00000000000  0.000000000000000
%f  0.0000000  0.000000000  0.00000000000  0.000000000000000
%i    0    0    0    0      0      0      0      0         0
%i    0    0    0    0      0      0      0      0         0
/*      NGA, ST. LOUIS,MO.                                  
/*   EPHEMERIS COMPUTED FROM  3 DAYS OF DATA                
/* CCCCCCCCCCCCCCCCCCCCCCCCCCCCCCCCCCCCCCCCCCCCCCCCCCCCCCCCC
/* CCCCCCCCCCCCCCCCCCCCCCCCCCCCCCCCCCCCCCCCCCCCCCCCCCCCCCCCC
*  2006  3 25  4 45   .00000000                                                 
P  1  15090.638937 -21108.147045   5764.899091     43.262531                    
V  1   6273.991952  -3747.577776 -31248.550794       .021695                    
P  2  -7937.938812  13692.488803  21034.320454    -12.784739                    
V  2 -26688.670261  -6276.053845  -6093.297991       .019580                    
P  3   8898.912516 -23248.537215  -8980.932535     84.606274                    
V  3   9764.503727  -6862.146765  28244.769463       .031459                    
P  4 -18626.173517   8321.910513  17154.149342    186.468870                    
V  4 -20817.632454  -6526.082980 -19048.508532       .106459                    
P  5  13756.885502  22069.276125   5623.392148   -286.861083                    
V  5   -192.011264   8080.930899 -30037.888977       .743622                    
P  6  16583.542032   3908.617718  20583.092127    426.904876                    
V  6 -15825.225922  20387.856117   8882.836550       .270343                    
P  7  19584.421017  -3078.192072  18201.631858    518.788701                    
V  7 -12518.453024  18529.039920  16800.258436       .059370                    
P  8 -24467.314896   1480.208312 -10863.829848    -60.522044                    
V  8 -12575.700989  -5036.507895  27617.947150      -.013310                    
P  9  14456.592643  14797.205251 -17356.446716     13.264729                    
V  9 -20844.734019  -2076.975116 -19468.024401       .015834                    
P 10    211.685491  24336.101871  10154.347647     80.699781                    
V 10  -6089.773363 -11854.266107  28588.463011       .006495                    
P 11 -16304.171060 -13808.467539 -15987.930805    315.865886                    
V 11  20456.255637  -1596.581449 -19313.085291       .026438                    
P 13 -16648.662612  -1862.546376  20513.099155     49.795730                    
V 13  17356.030020 -19596.404092  12317.986812       .026367                    
P 14  20652.430482 -14358.354842  -8390.447768    -17.220636                    
V 14  -5821.324677   9221.648885 -29909.966987       .006905                    
P 15  24657.495236   -577.616067 -10518.728757    585.739630                    
V 15  11854.656239   5756.137335  27537.764776       .061297                    
P 16   4625.949681 -21071.578135  15515.552807     32.967268                    
V 16   7841.288585  18052.576196  22397.464549       .020911                    
P 17 -20878.728889  13171.916524  -9698.316232     73.207415                    
V 17   6276.525726 -10913.831997 -28472.394462       .056743                    
P 18  16326.324601   8914.863031 -18972.923401   -227.464161                    
V 18   5300.131401  23646.319657  15302.524118      -.019230                    
P 19    192.655215 -18715.749896 -18726.082855    -17.750243                    
V 19  18107.591706 -15846.136318  15972.463841       .013180                    
P 20 -12733.363188 -22212.514353   7050.519662    -29.967589                    
V 20   -314.637574  -9462.974768 -29959.368992       .007946                    
P 21  26242.254030   5443.899983  -1505.631667     16.117281                    
V 21   1179.576934   3288.096222  30961.210513       .030591                    
P 22  13878.072892  -6719.492740 -21472.696761     79.117064                    
V 22   7551.728901  26596.447437  -3418.004593       .034210                    
P 23  -8413.781751 -12859.377557  21555.154745    146.074228                    
V 23  18706.362545 -20277.363540  -4925.150031      -.012108                    
P 24 -25767.387824  -1738.501764   6988.878300     95.424061                    
V 24  -7601.529722  -4523.138673 -29924.168082       .029402                    
P 25  15043.464560 -11795.851243  18894.111313     -8.850313                    
V 25  22831.095554   4010.766668 -15899.370324       .158621                    
P 26  -3159.223117  19949.627511 -17292.635442    -68.414424                    
V 26 -15710.258400  14613.533933  20744.875789      -.099043                    
P 27 -26433.768608  -4079.506678    281.842815     41.345300                    
V 27     25.913381  -2666.374404  31452.902424       .016512                    
P 28 -14977.402517   2527.382720 -21525.533126     30.829557                    
V 28  -8178.918178 -26761.014550   2175.878749      -.007250                    
P 29  -6891.882247  21474.345301 -13567.070347    569.338345                    
V 29 -13042.753085  12097.949057  25581.642549       .096054                    
P 30  16491.099557  15005.311410  14245.529557     39.868223                    
V 30   4057.266733  18278.110573 -23380.638628       .626031                    
EOF
